STARLINK-32226          
1 60426U 24144B   26068.67697025 -.00001787  00000+0 -48245-4 0  9998
2 60426  53.1606 217.4479 0001091  78.9057 281.2067 15.30187977 89306
KUIPER-00175            
1 67135U 25301C   26068.97960463  .00019968  00000+0  66732-3 0  9998
2 67135  51.8781  63.6978 0002279  50.5695 309.5490 15.30996371 13854
